NORAD_CAT_ID,OBJECT_NAME,OBJECT_TYPE,EPOCH,MEAN_MOTION,ECCENTRICITY,INCLINATION,RA_OF_ASC_NODE,ARG_OF_PERICENTER,MEAN_ANOMALY,BSTAR,MEAN_MOTION_DOT,MEAN_MOTION_DDOT,TLE_LINE0,TLE_LINE1,TLE_LINE2,SEMIMAJOR_AXIS,PERIOD,APOGEE,PERIGEE,DECAYED
52873.0,STARLINK-4211,PAYLOAD,2023-02-24 19:56:02,15.08850727,7.85e-05,53.2144,311.9872,57.6512,302.4556,0.0010335,0.00016203,0.0,0 STARLINK-4211,1 52873U 22062AV  23055.83058697  .00016203  00000-0  10335-2 0  9994,2 52873  53.2144 311.9872 0000785  57.6512 302.4556 15.08850727 38664,6917.848,95.437,540.256,539.17,0.0
52873.0,STARLINK-4211,PAYLOAD,2023-02-25 00:42:12,15.08842221,8.35e-05,53.2145,311.0952,90.5978,269.511,0.00083999,0.00013107,0.0,0 STARLINK-4211,1 52873U 22062AV  23056.02930751  .00013107  00000-0  83999-3 0  9993,2 52873  53.2145 311.0952 0000835  90.5978 269.5110 15.08842221 38695,6917.874,95.437,540.316,539.161,0.0
52873.0,STARLINK-4211,PAYLOAD,2023-02-25 22:57:36,15.08844682,9.62e-05,53.2149,306.93,92.0154,268.0948,0.0010135,0.00015881,0.0,0 STARLINK-4211,1 52873U 22062AV  23056.95667191  .00015881  00000-0  10135-2 0  9992,2 52873  53.2149 306.9300 0000962  92.0154 268.0948 15.08844682 38835,6917.866,95.437,540.397,539.066,0.0
52873.0,STARLINK-4211,PAYLOAD,2023-02-26 02:08:22,15.08853556,9.71e-05,53.2149,306.3347,87.9136,272.1968,0.0011202,0.00017592,0.0,0 STARLINK-4211,1 52873U 22062AV  23057.08915034  .00017592  00000-0  11202-2 0  9996,2 52873  53.2149 306.3347 0000971  87.9136 272.1968 15.08853556 39348,6917.839,95.437,540.376,539.032,0.0
52873.0,STARLINK-4211,PAYLOAD,2023-02-26 22:48:22,15.08862606,9.83e-05,53.2154,302.4708,76.7075,283.4027,0.0008187,0.00012774,0.0,0 STARLINK-4211,1 52873U 22062AV  23057.95026537  .00012774  00000-0  81870-3 0  9999,2 52873  53.2154 302.4708 0000983  76.7075 283.4027 15.08862606 39474,6917.811,95.436,540.356,538.996,0.0
52873.0,STARLINK-4211,PAYLOAD,2023-02-27 16:17:36,15.08874248,0.0001104,53.2155,299.1958,80.0709,280.0407,0.00095853,0.00015014,0.0,0 STARLINK-4211,1 52873U 22062AV  23058.67889796  .00015014  00000-0  95853-3 0  9999,2 52873  53.2155 299.1958 0001104  80.0709 280.0407 15.08874248 39584,6917.776,95.435,540.404,538.877,0.0
52873.0,STARLINK-4211,PAYLOAD,2023-02-28 14:33:01,15.08828983,0.0001355,53.2161,295.0364,87.3598,272.7549,-0.00035006,-5.853e-05,0.0,0 STARLINK-4211,1 52873U 22062AV  23059.60626531 -.00005853  00000-0 -35006-3 0  9995,2 52873  53.2161 295.0364 0001355  87.3598 272.7549 15.08828983 39727,6917.914,95.438,540.716,538.842,0.0
52873.0,STARLINK-4211,PAYLOAD,2023-02-28 22:29:58,15.0880521,0.0001458,53.2163,293.55,88.1062,272.0097,-0.00065464,-0.00010681,0.0,0 STARLINK-4211,1 52873U 22062AV  23059.93747993 -.00010681  00000-0 -65464-3 0  9993,2 52873  53.2163 293.5500 0001458  88.1062 272.0097 15.08805210 39283,6917.987,95.44,540.86,538.843,0.0
52873.0,STARLINK-4211,PAYLOAD,2023-03-01 03:16:08,15.08813433,0.0001491,53.216,292.6569,87.0938,273.0224,-0.00036573,-6.1e-05,0.0,0 STARLINK-4211,1 52873U 22062AV  23060.13620431 -.00006100  00000-0 -36573-3 0  9994,2 52873  53.2160 292.6569 0001491  87.0938 273.0224 15.08813433 39809,6917.962,95.439,540.858,538.795,0.0
52873.0,STARLINK-4211,PAYLOAD,2023-03-01 22:20:46,15.08827136,0.000145,53.2163,289.0892,95.5011,264.6147,-4.1319e-05,-9.45e-06,0.0,0 STARLINK-4211,1 52873U 22062AV  23060.93108824 -.00000945  00000-0 -41319-4 0  9995,2 52873  53.2163 289.0892 0001450  95.5011 264.6147 15.08827136 39436,6917.92,95.438,540.788,538.782,0.0
52873.0,STARLINK-4211,PAYLOAD,2023-03-02 01:31:32,15.08831266,0.0001497,53.2153,288.4936,91.6953,268.4211,0.00034278,5.17e-05,0.0,0 STARLINK-4211,1 52873U 22062AV  23061.06357131  .00005170  00000-0  34278-3 0  9995,2 52873  53.2153 288.4936 0001497  91.6953 268.4211 15.08831266 39949,6917.907,95.438,540.808,538.736,0.0
52873.0,STARLINK-4211,PAYLOAD,2023-03-02 19:00:46,15.08874206,0.0001538,53.2149,285.2228,92.3682,267.7486,0.0014315,0.00022589,0.0,0 STARLINK-4211,1 52873U 22062AV  23061.79220825  .00022589  00000-0  14315-2 0  9996,2 52873  53.2149 285.2228 0001538  92.3682 267.7486 15.08874206 39561,6917.776,95.435,540.705,538.577,0.0
52873.0,STARLINK-4211,PAYLOAD,2023-03-03 02:57:41,15.08897651,0.0001483,53.2145,283.7363,90.6807,269.4355,0.0020249,0.00032137,0.0,0 STARLINK-4211,1 52873U 22062AV  23062.12339814  .00032137  00000-0  20249-2 0  9996,2 52873  53.2145 283.7363 0001483  90.6807 269.4355 15.08897651 40104,6917.704,95.434,540.595,538.543,0.0
52873.0,STARLINK-4211,PAYLOAD,2023-03-03 14:05:23,15.08869105,0.0001337,53.2141,281.6543,95.879,264.2354,0.0010989,0.00017258,0.0,0 STARLINK-4211,1 52873U 22062AV  23062.58707649  .00017258  00000-0  10989-2 0  9998,2 52873  53.2141 281.6543 0001337  95.8790 264.2354 15.08869105 39689,6917.791,95.436,540.581,538.732,0.0
52873.0,STARLINK-4211,PAYLOAD,2023-03-03 22:02:18,15.08871619,0.0001084,53.2142,280.1681,95.5717,264.5399,0.0016931,0.00026784,0.0,0 STARLINK-4211,1 52873U 22062AV  23062.91827145  .00026784  00000-0  16931-2 0  9996,2 52873  53.2142 280.1681 0001084  95.5717 264.5399 15.08871619 39733,6917.784,95.436,540.399,538.899,0.0
52873.0,STARLINK-4211,PAYLOAD,2023-03-04 13:56:10,15.08849862,0.0001403,53.2142,277.1936,98.919,261.1961,0.0015304,0.00024159,0.0,0 STARLINK-4211,1 52873U 22062AV  23063.58067669  .00024159  00000-0  15304-2 0  9994,2 52873  53.2142 277.1936 0001403  98.9190 261.1961 15.08849862 40329,6917.85,95.437,540.686,538.745,0.0
52873.0,STARLINK-4211,PAYLOAD,2023-03-04 20:17:43,15.08844414,0.0001663,53.2139,276.0043,74.4847,285.6329,0.0014171,0.0002234,0.0,0 STARLINK-4211,1 52873U 22062AV  23063.84563957  .00022340  00000-0  14171-2 0  9995,2 52873  53.2139 276.0043 0001663  74.4847 285.6329 15.08844414 40369,6917.867,95.437,540.882,538.581,0.0
52873.0,STARLINK-4211,PAYLOAD,2023-03-04 23:28:29,15.08836123,0.0001386,53.2139,275.4096,73.4204,286.694,0.0008687,0.00013563,0.0,0 STARLINK-4211,1 52873U 22062AV  23063.97812047  .00013563  00000-0  86870-3 0  9999,2 52873  53.2139 275.4096 0001386  73.4204 286.6940 15.08836123 40388,6917.892,95.438,540.716,538.798,0.0
52873.0,STARLINK-4211,PAYLOAD,2023-03-05 20:08:30,15.0884602,0.000147,53.214,271.5427,80.0128,280.103,0.00059821,9.247e-05,0.0,0 STARLINK-4211,1 52873U 22062AV  23064.83924111  .00009247  00000-0  59821-3 0  9991,2 52873  53.2140 271.5427 0001470  80.0128 280.1030 15.08846020 40519,6917.862,95.437,540.744,538.71,0.0
52873.0,STARLINK-4211,PAYLOAD,2023-03-06 19:59:17,15.08845284,0.0001328,53.2144,267.0818,82.029,278.0853,0.00024897,3.677e-05,0.0,0 STARLINK-4211,1 52873U 22062AV  23065.83284061  .00003677  00000-0  24897-3 0  9991,2 52873  53.2144 267.0818 0001328  82.0290 278.0853 15.08845284 40667,6917.864,95.437,540.648,538.811,0.0
52873.0,STARLINK-4211,PAYLOAD,2023-03-07 19:50:04,15.08842489,0.0001507,53.2169,262.6206,92.6943,267.4221,0.0004253,6.488e-05,0.0,0 STARLINK-4211,1 52873U 22062AV  23066.82644154  .00006488  00000-0  42530-3 0  9991,2 52873  53.2169 262.6206 0001507  92.6943 267.4221 15.08842489 40819,6917.873,95.437,540.78,538.695,0.0
52873.0,STARLINK-4211,PAYLOAD,2023-03-08 14:54:42,15.08834868,0.0001268,53.2158,259.0537,84.3751,275.7386,-2.0272e-05,-6.1e-06,0.0,0 STARLINK-4211,1 52873U 22062AV  23067.62132391 -.00000610  00000-0 -20272-4 0  9998,2 52873  53.2158 259.0537 0001268  84.3751 275.7386 15.08834868 40932,6917.896,95.438,540.638,538.884,0.0
52873.0,STARLINK-4211,PAYLOAD,2023-03-08 19:40:51,15.08840052,9.27e-05,53.217,258.1607,68.3632,291.7458,6.2822e-05,7.12e-06,0.0,0 STARLINK-4211,1 52873U 22062AV  23067.82004186  .00000712  00000-0  62822-4 0  9998,2 52873  53.2170 258.1607 0000927  68.3632 291.7458 15.08840052 40474,6917.88,95.438,540.387,539.104,0.0
52873.0,STARLINK-4211,PAYLOAD,2023-03-08 22:51:37,15.08844289,0.0001424,53.2153,257.5665,83.3132,276.8022,0.00012341,1.677e-05,0.0,0 STARLINK-4211,1 52873U 22062AV  23067.95252075  .00001677  00000-0  12341-3 0  9995,2 52873  53.2153 257.5665 0001424  83.3132 276.8022 15.08844289 40980,6917.867,95.437,540.717,538.747,0.0
52873.0,STARLINK-4211,PAYLOAD,2023-03-09 19:31:38,15.08847606,0.000103,53.2128,253.7014,96.1802,263.9307,2.9738e-05,1.86e-06,0.0,0 STARLINK-4211,1 52873U 22062AV  23068.81363741  .00000186  00000-0  29738-4 0  9997,2 52873  53.2128 253.7014 0001030  96.1802 263.9307 15.08847606 40627,6917.857,95.437,540.435,539.01,0.0
52873.0,STARLINK-4211,PAYLOAD,2023-03-10 05:03:57,15.0884694,9.72e-05,53.2124,251.9171,94.4844,265.6259,6.638e-05,7.69e-06,0.0,0 STARLINK-4211,1 52873U 22062AV  23069.21107742  .00000769  00000-0  66380-4 0  9990,2 52873  53.2124 251.9171 0000972  94.4844 265.6259 15.08846940 41174,6917.859,95.437,540.397,539.052,0.0
52873.0,STARLINK-4211,PAYLOAD,2023-03-10 19:22:26,15.08833649,0.0001072,53.2159,249.2408,90.4347,269.6768,-3.9642e-05,-9.18e-06,0.0,0 STARLINK-4211,1 52873U 22062AV  23069.80724540 -.00000918  00000-0 -39642-4 0  9995,2 52873  53.2159 249.2408 0001072  90.4347 269.6768 15.08833649 41262,6917.9,95.438,540.506,539.023,0.0
52873.0,STARLINK-4211,PAYLOAD,2023-03-11 04:54:45,15.08829359,7.69e-05,53.2149,247.4555,100.065,260.0429,-5.2134e-05,-1.117e-05,0.0,0 STARLINK-4211,1 52873U 22062AV  23070.20468866 -.00001117  00000-0 -52134-4 0  9990,2 52873  53.2149 247.4555 0000769 100.0650 260.0429 15.08829359 40835,6917.913,95.438,540.31,539.246,0.0
52873.0,STARLINK-4211,PAYLOAD,2023-03-11 17:37:49,15.08842033,0.0001213,53.2156,245.0778,95.5629,264.5502,6.265e-05,7.09e-06,0.0,0 STARLINK-4211,1 52873U 22062AV  23070.73460420  .00000709  00000-0  62650-4 0  9994,2 52873  53.2156 245.0778 0001213  95.5629 264.5502 15.08842033 41402,6917.874,95.437,540.578,538.9,0.0
52873.0,STARLINK-4211,PAYLOAD,2023-03-11 20:48:35,15.08855402,9.84e-05,53.2163,244.4813,94.8116,265.2988,0.00011515,1.546e-05,0.0,0 STARLINK-4211,1 52873U 22062AV  23070.86707506  .00001546  00000-0  11515-3 0  9990,2 52873  53.2163 244.4813 0000984  94.8116 265.2988 15.08855402 40937,6917.833,95.437,540.379,539.018,0.0
